0 SL-12 R/B(2)
1 25788U 99033D   13282.81331948 -.00000073  00000-0  00000+0 0   684
2 25788 015.2120 122.4577 5108522 287.0563 334.7688 01.85816759 97167
0 SL-12 R/B(2)
1 25788U 99033D   13285.47823912 -.00000102  00000-0  00000+0 0   690
2 25788 015.2157 122.1600 5108805 287.5917 317.4297 01.85816970 97218
0 SL-12 R/B(2)
1 25788U 99033D   13287.67034065 -.00000132  00000-0  00000+0 0   702
2 25788 015.2189 121.9152 5109057 288.0325 343.8074 01.85817082 97256
0 SL-12 R/B(2)
1 25788U 99033D   13290.94080831 -.00000140  00000-0  00000+0 0   718
2 25788 015.2232 121.5511 5109319 288.6868 011.5473 01.85817204 97314
0 SL-12 R/B(2)
1 25788U 99033D   13295.26394992 -.00000111  00000-0  00000+0 0   723
2 25788 015.2269 121.0702 5110401 289.5463 023.4650 01.85816706 97401
